<?xml version="1.0" encoding="utf-8" ?>
<kml xmlns="http://www.opengis.net/kml/2.2">
<Document id="root_doc">
<Schema name="south0410" id="south0410">
	<SimpleField name="Cluster Na" type="string"></SimpleField>
</Schema>
<Folder><name>south0410</name>
  <Placemark>
	<Style><LineStyle><color>ff0000ff</color></LineStyle><PolyStyle><fill>0</fill></PolyStyle></Style>
	<ExtendedData><SchemaData schemaUrl="#south0410">
		<SimpleData name="Cluster Na">S1_CL42</SimpleData>
	</SchemaData></ExtendedData>
      <MultiGeometry><Polygon><outerBoundaryIs><LinearRing><coordinates>104.026212803798,10.1059819444688 103.995446772912,10.1056395616107 103.994824830201,10.1299634049237 103.994748775059,10.1652994735448 104.008473733318,10.1667511518221 104.022112693364,10.1686616754032 104.037445869587,10.1697101295872 104.047199959254,10.1687504956046 104.042914384536,10.1539952396443 104.043456187764,10.1527273312691 104.036671434629,10.1483218492789 104.034157822929,10.1452442292998 104.031890687287,10.1404990100391 104.030598353357,10.1360624409784 104.030402948914,10.1323897256498 104.03345725359,10.1289701478953 104.035153719437,10.1244913892388 104.036237325894,10.1188779525093 104.032717825413,10.1119410947787 104.030377413106,10.1109729545833 104.027131034744,10.1077532222819 104.026212803798,10.1059819444688</coordinates></LinearRing></outerBoundaryIs></Polygon></MultiGeometry>
  </Placemark>
  <Placemark>
	<Style><LineStyle><color>ff0000ff</color></LineStyle><PolyStyle><fill>0</fill></PolyStyle></Style>
	<ExtendedData><SchemaData schemaUrl="#south0410">
		<SimpleData name="Cluster Na">S1_CL44</SimpleData>
	</SchemaData></ExtendedData>
      <MultiGeometry><Polygon><outerBoundaryIs><LinearRing><coordinates>104.035288919569,10.0441047931375 104.035074899062,10.0379601961757 104.022331660102,10.0363594159942 104.017186497674,10.0321002480816 104.007306089606,10.0322115995898 104.005666422459,10.0324899781929 104.001769536482,10.0344465792954 104.002412050543,10.0365468614466 104.004959669378,10.0441399081071 104.006231824923,10.0478978605401 104.010330992791,10.0527692153582 104.016140503115,10.0600761099098 104.028409736596,10.0715441214902 104.037343095536,10.0708760931587 104.036381911346,10.0605493126204 104.035618846451,10.0522869797917 104.035288919569,10.0441047931375</coordinates></LinearRing></outerBoundaryIs></Polygon></MultiGeometry>
  </Placemark>
  <Placemark>
	<Style><LineStyle><color>ff0000ff</color></LineStyle><PolyStyle><fill>0</fill></PolyStyle></Style>
	<ExtendedData><SchemaData schemaUrl="#south0410">
		<SimpleData name="Cluster Na">S1_CL15</SimpleData>
	</SchemaData></ExtendedData>
      <MultiGeometry><Polygon><outerBoundaryIs><LinearRing><coordinates>106.30059575433,10.3902305030622 106.286334964969,10.4098210823861 106.27250632074,10.4258104522755 106.285038529573,10.4370462257112 106.334231050448,10.4515951118268 106.341073348374,10.4540439342423 106.346835283469,10.4551242970726 106.352237097621,10.4537558374875 106.344386461054,10.4255943797094 106.34481962161,10.4113535672218 106.338768574336,10.3977210186861 106.33192627641,10.3992335266486 106.327748873466,10.400313889479 106.324939930107,10.3982251880069 106.319466091767,10.3986573331391 106.311471406822,10.3943358818176 106.308662463463,10.3909507449492 106.30059575433,10.3902305030622</coordinates></LinearRing></outerBoundaryIs></Polygon></MultiGeometry>
  </Placemark>
  <Placemark>
	<Style><LineStyle><color>ff0000ff</color></LineStyle><PolyStyle><fill>0</fill></PolyStyle></Style>
	<ExtendedData><SchemaData schemaUrl="#south0410">
		<SimpleData name="Cluster Na">S1_CL14</SimpleData>
	</SchemaData></ExtendedData>
      <MultiGeometry><Polygon><outerBoundaryIs><LinearRing><coordinates>106.309454729539,10.3691994399645 106.312047600332,10.3734488670973 106.316577768505,10.3757128888431 106.321914914182,10.3640136983788 106.328181018598,10.3629333355484 106.332550388129,10.3631434901292 106.336607848675,10.3632934564919 106.339589648813,10.3620311296061 106.342360120889,10.360084489189 106.343095144093,10.3576094574855 106.34490443198,10.3525689532923 106.347590093686,10.348063716847 106.353892224097,10.3390378825595 106.330643587561,10.3307987590112 106.31238952491,10.3270950361545 106.31309499593,10.3339733786027 106.318601801503,10.339525474224 106.31982621271,10.3460796753948 106.315504761389,10.3517695863014 106.308662463463,10.3564511585663 106.304917205651,10.3596202228687 106.307366028067,10.3661744240395 106.309454729539,10.3691994399645</coordinates></LinearRing></outerBoundaryIs></Polygon></MultiGeometry>
  </Placemark>
  <Placemark>
	<Style><LineStyle><color>ff0000ff</color></LineStyle><PolyStyle><fill>0</fill></PolyStyle></Style>
	<ExtendedData><SchemaData schemaUrl="#south0410">
		<SimpleData name="Cluster Na">S1_CL18</SimpleData>
	</SchemaData></ExtendedData>
      <MultiGeometry><Polygon><outerBoundaryIs><LinearRing><coordinates>106.190065645862,10.5840457498875 106.238356073906,10.5855615929203 106.276468698731,10.5894594750046 106.303320775312,10.5628239474284 106.323459832748,10.5606584573816 106.341649949141,10.5403028509412 106.344681635207,10.5305581457304 106.32865700886,10.5173486564446 106.305757779919,10.5135043655146 106.288378893989,10.5141004213744 106.250482818169,10.493744814934 106.218433565475,10.4807518746529 106.199160704059,10.4703575224281 106.187033959796,10.4720899144656 106.171156254618,10.4776398008983 106.147409351106,10.4811980199291 106.137910589702,10.4884255264682 106.126009120943,10.5172811719127 106.126297217698,10.5357193642176 106.11794241181,10.5483956214272 106.11794241181,10.5527170727486 106.143940707864,10.5662887315034 106.190065645862,10.5840457498875</coordinates></LinearRing></outerBoundaryIs></Polygon></MultiGeometry>
  </Placemark>
  <Placemark>
	<Style><LineStyle><color>ff0000ff</color></LineStyle><PolyStyle><fill>0</fill></PolyStyle></Style>
	<ExtendedData><SchemaData schemaUrl="#south0410">
		<SimpleData name="Cluster Na">S1_CL17</SimpleData>
	</SchemaData></ExtendedData>
      <MultiGeometry><Polygon><outerBoundaryIs><LinearRing><coordinates>106.323799053109,10.512328925459 106.329050225648,10.5030702791401 106.3159222943,10.4986482391072 106.314402218039,10.4849675527554 106.318686069321,10.4815128339797 106.325180940619,10.478334492706 106.32656282813,10.4705959226484 106.328912036897,10.4610608988275 106.329741169403,10.4531841400189 106.317027804309,10.4480711562308 106.29574673665,10.4475184012267 106.275847556502,10.4378451886547 106.263287224588,10.4344533549184 106.241679967981,10.4393509997493 106.224826307827,10.4425200640517 106.206833150132,10.4414437219836 106.20129220598,10.4471152758056 106.203214574359,10.4546771865377 106.208981679498,10.4634621162818 106.226848397378,10.4705788390139 106.244262793287,10.4770282278865 106.270734572714,10.4907714802986 106.323799053109,10.512328925459</coordinates></LinearRing></outerBoundaryIs></Polygon></MultiGeometry>
  </Placemark>
  <Placemark>
	<Style><LineStyle><color>ff0000ff</color></LineStyle><PolyStyle><fill>0</fill></PolyStyle></Style>
	<ExtendedData><SchemaData schemaUrl="#south0410">
		<SimpleData name="Cluster Na">S1_CL23</SimpleData>
	</SchemaData></ExtendedData>
      <MultiGeometry><Polygon><outerBoundaryIs><LinearRing><coordinates>106.094318477919,10.4959620120603 106.123210125623,10.4934290859769 106.147748592585,10.4765278490698 106.171382415604,10.4737479520409 106.177822373119,10.4698125868998 106.195581641087,10.4340483052317 106.191284582357,10.4171438356143 106.174096347434,10.4176443100645 106.138469305587,10.442231967297 106.126513290264,10.4338771614088 106.116312215555,10.4282653004834 106.08894673627,10.4465036426271 106.085963672031,10.4726261749245 106.094318477919,10.4959620120603</coordinates></LinearRing></outerBoundaryIs></Polygon></MultiGeometry>
  </Placemark>
  <Placemark>
	<Style><LineStyle><color>ff0000ff</color></LineStyle><PolyStyle><fill>0</fill></PolyStyle></Style>
	<ExtendedData><SchemaData schemaUrl="#south0410">
		<SimpleData name="Cluster Na">S1_CL22</SimpleData>
	</SchemaData></ExtendedData>
      <MultiGeometry><Polygon><outerBoundaryIs><LinearRing><coordinates>106.103249477317,10.388645970911 106.096070807324,10.4139185365469 106.117006097357,10.4256664038981 106.137605015323,10.4366140805791 106.145383627701,10.4338771614088 106.152730094948,10.4288354682005 106.161661094345,10.4199044688028 106.173012269052,10.4139619341138 106.186486128355,10.4072135065562 106.18980265838,10.4011332015109 106.191035950562,10.3975843865529 106.191576728976,10.3876701156328 106.193789246344,10.380358012641 106.187910230261,10.3768840485921 106.180160618152,10.3744789965582 106.165463077945,10.3728756285357 106.155250941552,10.3802911650229 106.13940562004,10.3797149715134 106.128169846604,10.3690553915872 106.119959089093,10.3706399237384 106.117654315055,10.3723685042669 106.115349541017,10.3745292299277 106.112756670224,10.3776982942301 106.109587605922,10.3810114069098 106.103249477317,10.388645970911</coordinates></LinearRing></outerBoundaryIs></Polygon></MultiGeometry>
  </Placemark>
  <Placemark>
	<Style><LineStyle><color>ff0000ff</color></LineStyle><PolyStyle><fill>0</fill></PolyStyle></Style>
	<ExtendedData><SchemaData schemaUrl="#south0410">
		<SimpleData name="Cluster Na">S1_CL21</SimpleData>
	</SchemaData></ExtendedData>
      <MultiGeometry><Polygon><outerBoundaryIs><LinearRing><coordinates>106.117228423267,10.2904357893756 106.109746039161,10.3128829416914 106.111349407184,10.3162232917385 106.118588757832,10.3375892497836 106.121905287857,10.3507171811313 106.140846103814,10.3785625844943 106.161445021779,10.3719363591348 106.188238019972,10.3684071738889 106.195008293709,10.3599083196234 106.196304729106,10.3388772565257 106.197745212879,10.3187104836923 106.190606099399,10.3154196796596 106.144706431776,10.2890849981727 106.119366247297,10.2893668773605 106.117228423267,10.2904357893756</coordinates></LinearRing></outerBoundaryIs></Polygon></MultiGeometry>
  </Placemark>
  <Placemark>
	<Style><LineStyle><color>ff0000ff</color></LineStyle><PolyStyle><fill>0</fill></PolyStyle></Style>
	<ExtendedData><SchemaData schemaUrl="#south0410">
		<SimpleData name="Cluster Na">S1_CL25</SimpleData>
	</SchemaData></ExtendedData>
      <MultiGeometry><Polygon><outerBoundaryIs><LinearRing><coordinates>106.111349407184,10.3383698125501 106.107608215131,10.3030957160538 106.106539303116,10.2873292638319 106.088701833865,10.277742459197 106.049419317312,10.2945778234339 106.029577638033,10.3103108721553 106.03792851315,10.3204989397987 106.048216791295,10.3252756403659 106.052292018353,10.3333258839791 106.04977075982,10.3386947597919 106.046947458278,10.3416099520957 106.041335670199,10.3464200561634 106.035399129713,10.3504408036293 106.031558386117,10.3563024103865 106.026922085907,10.3639221401457 106.034498478932,10.3812187948384 106.042204161211,10.3902454487801 106.050755457331,10.3945210968403 106.068926961587,10.3958572368591 106.074415892931,10.3964568556299 106.079391434619,10.3949553279006 106.08193574571,10.3934537929528 106.098351832486,10.3909507449492 106.104834009468,10.3804352134003 106.105739189468,10.3732657893548 106.109075064009,10.3553012642425 106.109414305488,10.3505179663284 106.109640466473,10.3484043928517 106.111349407184,10.3383698125501</coordinates></LinearRing></outerBoundaryIs></Polygon></MultiGeometry>
  </Placemark>
  <Placemark>
	<Style><LineStyle><color>ff0000ff</color></LineStyle><PolyStyle><fill>0</fill></PolyStyle></Style>
	<ExtendedData><SchemaData schemaUrl="#south0410">
		<SimpleData name="Cluster Na">S1_CL24</SimpleData>
	</SchemaData></ExtendedData>
      <MultiGeometry><Polygon><outerBoundaryIs><LinearRing><coordinates>106.01371993836,10.5330377392692 106.116213831281,10.5368717512366 106.119959089093,10.5126716238365 106.094318477919,10.5089263660246 106.082161906695,10.4809756324372 106.08080494078,10.4699672520687 106.079561055358,10.4537319577644 106.102064073448,10.4231494759626 106.0916606681,10.4151419297769 106.085667401976,10.3993486664699 106.072133697632,10.4005337269249 106.047949563291,10.3994648149099 106.042337775212,10.4046757609832 106.036725987133,10.4084169530358 106.034431808456,10.4137312516003 106.025395499253,10.4308231476143 105.996984025409,10.4627671150759 105.986467539568,10.4792243253584 105.980700434429,10.5049091693568 105.988955310412,10.5199188043973 106.01371993836,10.5330377392692</coordinates></LinearRing></outerBoundaryIs></Polygon></MultiGeometry>
  </Placemark>
  <Placemark>
	<Style><LineStyle><color>ff0000ff</color></LineStyle><PolyStyle><fill>0</fill></PolyStyle></Style>
	<ExtendedData><SchemaData schemaUrl="#south0410">
		<SimpleData name="Cluster Na">S1_CL28</SimpleData>
	</SchemaData></ExtendedData>
      <MultiGeometry><Polygon><outerBoundaryIs><LinearRing><coordinates>105.940463457756,10.5375483725217 105.99042535682,10.5351500579524 105.981378917386,10.5211417795402 105.977194939149,10.5072438517107 105.983979768724,10.4741093400648 105.99472241555,10.4603206984469 106.003995015969,10.4483107371784 106.005804303856,10.4336312652155 105.989973034848,10.4132790336296 105.969505465631,10.3962622135537 105.960345945705,10.3898111504037 105.948874780897,10.3858027832176 105.943530220822,10.3852015202092 105.937918432743,10.3890095192628 105.903428872481,10.4394343592916 105.93023749018,10.4714941495301 105.939910702752,10.4833783821186 105.940463457756,10.5375483725217</coordinates></LinearRing></outerBoundaryIs></Polygon></MultiGeometry>
  </Placemark>
  <Placemark>
	<Style><LineStyle><color>ff0000ff</color></LineStyle><PolyStyle><fill>0</fill></PolyStyle></Style>
	<ExtendedData><SchemaData schemaUrl="#south0410">
		<SimpleData name="Cluster Na">S1_CL26</SimpleData>
	</SchemaData></ExtendedData>
      <MultiGeometry><Polygon><outerBoundaryIs><LinearRing><coordinates>105.974795897262,10.3923498693098 105.995627059494,10.4107210088437 106.003316533012,10.4188398846644 106.012136811459,10.4265136961151 106.018243158076,10.4265136961151 106.022087894835,10.4226212066871 106.026950356031,10.4141687764618 106.032038978212,10.4034916949358 106.034413668563,10.3915907673366 106.030653742173,10.3796615789128 106.02449085531,10.3619755114762 106.033326298448,10.3496116711231 106.044105021028,10.3404912135552 106.048527061061,10.3286069809668 106.043275888522,10.3258432059462 106.030009768423,10.3258432059462 106.015914515818,10.3208684109092 106.001197413833,10.3307489066077 105.991330000763,10.3343598918302 105.980587353936,10.3348605024418 105.972558638939,10.3323018329836 105.965095326407,10.3288531636227 105.962664095809,10.3283525471836 105.960798267676,10.3305218793285 105.95881935905,10.3549397384605 105.95898897979,10.3765749315782 105.967313513157,10.3870721162355 105.974795897262,10.3923498693098</coordinates></LinearRing></outerBoundaryIs></Polygon></MultiGeometry>
  </Placemark>
  <Placemark>
	<Style><LineStyle><color>ff0000ff</color></LineStyle><PolyStyle><fill>0</fill></PolyStyle></Style>
	<ExtendedData><SchemaData schemaUrl="#south0410">
		<SimpleData name="Cluster Na">S1_CL27</SimpleData>
	</SchemaData></ExtendedData>
      <MultiGeometry><Polygon><outerBoundaryIs><LinearRing><coordinates>105.952260690461,10.367120146701 105.956783910178,10.3443718776482 105.958536657818,10.3317455985493 105.957236232149,10.3228457137507 105.953334955144,10.3123880273639 105.914553066939,10.2837647312581 105.899075926823,10.2758879724495 105.881940521696,10.2912269238136 105.866739759083,10.3004855701325 105.873787385385,10.3170682202559 105.894093040126,10.3311546564486 105.911730088374,10.341843776599 105.925893172574,10.3544034927758 105.943440412014,10.3680100209789 105.949150976906,10.3688998927282 105.952260690461,10.367120146701</coordinates></LinearRing></outerBoundaryIs></Polygon></MultiGeometry>
  </Placemark>
  <Placemark>
	<Style><LineStyle><color>ff0000ff</color></LineStyle><PolyStyle><fill>0</fill></PolyStyle></Style>
	<ExtendedData><SchemaData schemaUrl="#south0410">
		<SimpleData name="Cluster Na">S1_CL29</SimpleData>
	</SchemaData></ExtendedData>
      <MultiGeometry><Polygon><outerBoundaryIs><LinearRing><coordinates>105.895621208048,10.4396416424181 105.932306644664,10.3922162553079 105.939254572762,10.3827964681753 105.947004184871,10.374245172055 105.930436048638,10.3602825088585 105.923087278534,10.3548043347814 105.915738508431,10.3473887576771 105.899571214203,10.3353634975078 105.886343428017,10.3288164114157 105.868812590348,10.3188646740193 105.855879435589,10.3082398551262 105.843800426412,10.3031111564021 105.833574458836,10.3098824052025 105.833712647587,10.3177591640111 105.828599663799,10.3227339590481 105.821552037497,10.3274323765831 105.817820941219,10.3575575243072 105.816439053709,10.3695799456467 105.832054382575,10.3706854556549 105.842556727653,10.3652960943648 105.849466165204,10.3827078769944 105.865910626577,10.4012251696322 105.876551160406,10.4180841972577 105.895621208048,10.4396416424181</coordinates></LinearRing></outerBoundaryIs></Polygon></MultiGeometry>
  </Placemark>
  <Placemark>
	<Style><LineStyle><color>ff0000ff</color></LineStyle><PolyStyle><fill>0</fill></PolyStyle></Style>
	<ExtendedData><SchemaData schemaUrl="#south0410">
		<SimpleData name="Cluster Na">S1_CL13</SimpleData>
	</SchemaData></ExtendedData>
      <MultiGeometry><Polygon><outerBoundaryIs><LinearRing><coordinates>106.489003704964,10.3060131201737 106.519957985194,10.3021438351449 106.559479967988,10.2874958275359 106.596238175762,10.2814155224906 106.617242865918,10.2839029200091 106.644051483617,10.273676952433 106.664779796272,10.2764407274536 106.677216783864,10.2924706225729 106.691864791473,10.2855611850215 106.719778919181,10.2648328723672 106.747969424391,10.2606872098364 106.773119777078,10.2388533871739 106.780581969633,10.2222707370505 106.772290644572,10.2164668095073 106.751562331917,10.2037534444127 106.717844276666,10.2217179820464 106.686889996436,10.2399588971821 106.659528623732,10.2457628247253 106.614755468399,10.2543305272891 106.584077565671,10.258752567322 106.546213847889,10.2698076674042 106.527696555251,10.2778226149639 106.51277217014,10.2877722050379 106.495360387511,10.2946816425893 106.481541512408,10.3046312326634 106.489003704964,10.3060131201737</coordinates></LinearRing></outerBoundaryIs></Polygon></MultiGeometry>
  </Placemark>
  <Placemark>
	<Style><LineStyle><color>ff0000ff</color></LineStyle><PolyStyle><fill>0</fill></PolyStyle></Style>
	<ExtendedData><SchemaData schemaUrl="#south0410">
		<SimpleData name="Cluster Na">S1_Pilot</SimpleData>
	</SchemaData></ExtendedData>
      <MultiGeometry><Polygon><outerBoundaryIs><LinearRing><coordinates>106.693956182157,10.4442104416296 106.711114574684,10.4707279573528 106.729609984811,10.4847666421474 106.739191944274,10.4762988640173 106.754121974135,10.4453246229625 106.753319999623,10.4297272187062 106.750778256395,10.4170185025685 106.741246719292,10.4025623379619 106.717894453389,10.4062160938515 106.699749925089,10.3960778080479 106.693733345891,10.4027628960454 106.689722293092,10.424823686437 106.690613638159,10.4415364064306 106.693956182157,10.4442104416296</coordinates></LinearRing></outerBoundaryIs></Polygon></MultiGeometry>
  </Placemark>
  <Placemark>
	<Style><LineStyle><color>ff0000ff</color></LineStyle><PolyStyle><fill>0</fill></PolyStyle></Style>
	<ExtendedData><SchemaData schemaUrl="#south0410">
		<SimpleData name="Cluster Na">S1_CL01</SimpleData>
	</SchemaData></ExtendedData>
      <MultiGeometry><Polygon><outerBoundaryIs><LinearRing><coordinates>106.699694216022,10.3935709000489 106.717743953615,10.4042670408448 106.742676449857,10.3990674410241 106.751413692202,10.4130470287755 106.75490858914,10.4251203091063 106.758244627126,10.4356049999199 106.777464073059,10.4196427432389 106.787714541322,10.4100607837759 106.787491705055,10.3510091731318 106.754511937601,10.3476666291331 106.717521117348,10.3572485885961 106.706379304019,10.37329279979 106.699694216022,10.3935709000489</coordinates></LinearRing></outerBoundaryIs></Polygon></MultiGeometry>
  </Placemark>
  <Placemark>
	<Style><LineStyle><color>ff0000ff</color></LineStyle><PolyStyle><fill>0</fill></PolyStyle></Style>
	<ExtendedData><SchemaData schemaUrl="#south0410">
		<SimpleData name="Cluster Na">S1_CL02</SimpleData>
	</SchemaData></ExtendedData>
      <MultiGeometry><Polygon><outerBoundaryIs><LinearRing><coordinates>106.711487560493,10.3523213738054 106.758745826666,10.3436555763346 106.79172559412,10.3233774760757 106.781697962124,10.282152766758 106.758745826666,10.2636573566318 106.732228310943,10.2732393160948 106.708830502952,10.2810385854251 106.691894946692,10.2932945800871 106.684232043719,10.3023876287123 106.681109894739,10.3125161446557 106.680981193485,10.3418842099292 106.693779615945,10.3490945887802 106.711487560493,10.3523213738054</coordinates></LinearRing></outerBoundaryIs></Polygon></MultiGeometry>
  </Placemark>
  <Placemark>
	<Style><LineStyle><color>ff0000ff</color></LineStyle><PolyStyle><fill>0</fill></PolyStyle></Style>
	<ExtendedData><SchemaData schemaUrl="#south0410">
		<SimpleData name="Cluster Na">S1_CL06</SimpleData>
	</SchemaData></ExtendedData>
      <MultiGeometry><Polygon><outerBoundaryIs><LinearRing><coordinates>106.644079110196,10.3449993125644 106.650849383933,10.3413981031299 106.65188485179,10.3337601294852 106.664676645163,10.3377566478039 106.6804348355,10.3372549197971 106.681025512334,10.3283724291745 106.676553244876,10.3185764943301 106.675287508803,10.3116029311663 106.67459923211,10.3022272250415 106.669254672034,10.296080980955 106.664486085902,10.2903977086216 106.654458453906,10.2790330590259 106.624152721651,10.2895063635552 106.594069825662,10.2879465096892 106.560198713142,10.291734726221 106.545045847014,10.2981969779519 106.545117874935,10.3133086695405 106.547854794105,10.3235361043346 106.550447664898,10.3416861998847 106.56621529234,10.3483351379328 106.602537603792,10.3474437928665 106.627801643552,10.3452874093192 106.644079110196,10.3449993125644</coordinates></LinearRing></outerBoundaryIs></Polygon></MultiGeometry>
  </Placemark>
  <Placemark>
	<Style><LineStyle><color>ff0000ff</color></LineStyle><PolyStyle><fill>0</fill></PolyStyle></Style>
	<ExtendedData><SchemaData schemaUrl="#south0410">
		<SimpleData name="Cluster Na">S1_CL05</SimpleData>
	</SchemaData></ExtendedData>
      <MultiGeometry><Polygon><outerBoundaryIs><LinearRing><coordinates>106.565860841278,10.392391228723 106.576088276072,10.3885019225337 106.590925258942,10.3817316487967 106.610998967215,10.3802578021395 106.629705852548,10.3915803906311 106.638859915245,10.3817605779201 106.648887547241,10.35568873473 106.648688658272,10.3484564736216 106.635292159176,10.346727893093 106.612532515549,10.3487445703764 106.593178480596,10.3490036467325 106.563318420874,10.3510091731318 106.559746371151,10.3508405239328 106.526320931164,10.3544059041981 106.525409168793,10.3579362184088 106.52976276777,10.3647216448454 106.533890205761,10.3699496600563 106.540109632871,10.3759005924093 106.545982165199,10.3978650670635 106.558946519164,10.3957043414027 106.565860841278,10.392391228723</coordinates></LinearRing></outerBoundaryIs></Polygon></MultiGeometry>
  </Placemark>
  <Placemark>
	<Style><LineStyle><color>ff0000ff</color></LineStyle><PolyStyle><fill>0</fill></PolyStyle></Style>
	<ExtendedData><SchemaData schemaUrl="#south0410">
		<SimpleData name="Cluster Na">S1_CL03</SimpleData>
	</SchemaData></ExtendedData>
      <MultiGeometry><Polygon><outerBoundaryIs><LinearRing><coordinates>106.632726861001,10.3927380607278 106.661078825213,10.4107991312351 106.682176833859,10.4254648201714 106.689109493359,10.4080552573767 106.692332754587,10.3951094735505 106.70034908305,10.3781775399635 106.706490722153,10.3666077117925 106.709631147586,10.3584224592814 106.686388977623,10.3463906967111 106.67755626353,10.3444078425271 106.670614083233,10.3414272136688 106.655932969446,10.3403009072253 106.651673000574,10.3527918632644 106.647699600219,10.3675739427911 106.639194169645,10.3862173032517 106.632726861001,10.3927380607278</coordinates></LinearRing></outerBoundaryIs></Polygon></MultiGeometry>
  </Placemark>
  <Placemark>
	<Style><LineStyle><color>ff0000ff</color></LineStyle><PolyStyle><fill>0</fill></PolyStyle></Style>
	<ExtendedData><SchemaData schemaUrl="#south0410">
		<SimpleData name="Cluster Na">S1_CL07</SimpleData>
	</SchemaData></ExtendedData>
      <MultiGeometry><Polygon><outerBoundaryIs><LinearRing><coordinates>106.434859964092,10.3561842196888 106.450097560512,10.3584924064311 106.467342335682,10.357435648345 106.492122233701,10.3534603720642 106.509408279045,10.3537091571938 106.52153662089,10.350340664332 106.528425514053,10.3481236346873 106.546414310331,10.3452874093192 106.544265920081,10.3345192894047 106.5415166655,10.3189265562584 106.54209285901,10.3112919922572 106.537195214179,10.3071145893131 106.524433492355,10.3086702824813 106.492567906234,10.3100073000807 106.460702320113,10.3100073000807 106.439050610324,10.3183048372501 106.425774246258,10.3253963590436 106.406476760371,10.3373843795238 106.407890266532,10.3507891145268 106.434859964092,10.3561842196888</coordinates></LinearRing></outerBoundaryIs></Polygon></MultiGeometry>
  </Placemark>
  <Placemark>
	<Style><LineStyle><color>ff0000ff</color></LineStyle><PolyStyle><fill>0</fill></PolyStyle></Style>
	<ExtendedData><SchemaData schemaUrl="#south0410">
		<SimpleData name="Cluster Na">S1_CL08</SimpleData>
	</SchemaData></ExtendedData>
      <MultiGeometry><Polygon><outerBoundaryIs><LinearRing><coordinates>106.42217258484,10.3738810122294 106.41777910933,10.3756816169467 106.409995289529,10.379249932384 106.408922820616,10.3873867303355 106.410792763027,10.4053555826873 106.430619424125,10.4105064563091 106.439532874788,10.4154088541739 106.467164571844,10.3969134440476 106.484322964371,10.4013701693792 106.506128944751,10.4096574760588 106.539996552379,10.3869679132585 106.528518882348,10.3677806005086 106.519981305133,10.3581586937361 106.516815051331,10.3544322111786 106.487888344636,10.3565800797963 106.466050390511,10.3621509864609 106.445652470353,10.3673268110586 106.430599414917,10.3741691089842 106.42217258484,10.3738810122294</coordinates></LinearRing></outerBoundaryIs></Polygon></MultiGeometry>
  </Placemark>
  <Placemark>
	<Style><LineStyle><color>ff0000ff</color></LineStyle><PolyStyle><fill>0</fill></PolyStyle></Style>
	<ExtendedData><SchemaData schemaUrl="#south0410">
		<SimpleData name="Cluster Na">S1_CL09</SimpleData>
	</SchemaData></ExtendedData>
      <MultiGeometry><Polygon><outerBoundaryIs><LinearRing><coordinates>106.404770417201,10.4887219858793 106.433739131857,10.4655470141548 106.448446325451,10.4506169842938 106.42571702626,10.4321215741675 106.416803575596,10.4310073928346 106.420814628395,10.4156316904405 106.416554698122,10.4138544369528 106.408343940611,10.4122699048016 106.405318924686,10.406363921329 106.401285570119,10.4057877278195 106.393628603872,10.4042670408448 106.377661636229,10.4060038003855 106.371251483435,10.4078044051028 106.364625258076,10.4087407195558 106.358071056905,10.399377575026 106.350812887734,10.3977845894131 106.348212036397,10.4084618662447 106.348347791432,10.4162312351796 106.349500178451,10.4218491218975 106.350220420338,10.4381986127303 106.359511540679,10.4474897330714 106.362290557765,10.4562826788157 106.371732778923,10.4594519379013 106.383380069694,10.4725734380532 106.388503369741,10.4791400264162 106.396302639071,10.4849337693474 106.404770417201,10.4887219858793</coordinates></LinearRing></outerBoundaryIs></Polygon></MultiGeometry>
  </Placemark>
  <Placemark>
	<Style><LineStyle><color>ff0000ff</color></LineStyle><PolyStyle><fill>0</fill></PolyStyle></Style>
	<ExtendedData><SchemaData schemaUrl="#south0410">
		<SimpleData name="Cluster Na">S1_CL16</SimpleData>
	</SchemaData></ExtendedData>
      <MultiGeometry><Polygon><outerBoundaryIs><LinearRing><coordinates>106.350175531889,10.5241529522657 106.365774070549,10.520810408267 106.370676468414,10.5012008168078 106.376024538812,10.4931787112109 106.383823808142,10.4782486813499 106.377782585294,10.4703494940508 106.370899304681,10.4619816338895 106.363477902941,10.4587847281513 106.352565635375,10.4569498939437 106.344763081364,10.4557822665287 106.334359676016,10.4662351555931 106.328004985723,10.4754621349154 106.323658016165,10.4827054066816 106.316972928168,10.4847109330808 106.321652489766,10.4956299101433 106.335468338294,10.5049890333397 106.343044771358,10.511228448804 106.350175531889,10.5174678642683 106.351289713221,10.5219245895999 106.350175531889,10.5241529522657</coordinates></LinearRing></outerBoundaryIs></Polygon></MultiGeometry>
  </Placemark>
  <Placemark>
	<Style><LineStyle><color>ff0000ff</color></LineStyle><PolyStyle><fill>0</fill></PolyStyle></Style>
	<ExtendedData><SchemaData schemaUrl="#south0410">
		<SimpleData name="Cluster Na">S1_CL19</SimpleData>
	</SchemaData></ExtendedData>
      <MultiGeometry><Polygon><outerBoundaryIs><LinearRing><coordinates>106.282589707157,10.4096770340088 106.292529045196,10.4004579378563 106.294838043742,10.3921399439529 106.271458651832,10.393509405487 106.251698973279,10.3903811990879 106.232163180545,10.3879481030686 106.21469224439,10.3843889069984 106.193920102102,10.393077899771 106.191058421371,10.403630721783 106.191114961617,10.4083575977297 106.193828893447,10.4135848830146 106.19586434232,10.4188676886703 106.199595998586,10.4244840469836 106.202066664201,10.4275390328041 106.203939293107,10.4301319035969 106.205235728503,10.4330128711446 106.207540502541,10.4367581289565 106.219928662996,10.4393509997493 106.238510903678,10.4390629029946 106.255461482699,10.4288877923384 106.263431272965,10.4240818717469 106.268328917796,10.4227854363505 106.276683723684,10.4178877915195 106.282589707157,10.4096770340088</coordinates></LinearRing></outerBoundaryIs></Polygon></MultiGeometry>
  </Placemark>
  <Placemark>
	<Style><LineStyle><color>ff0000ff</color></LineStyle><PolyStyle><fill>0</fill></PolyStyle></Style>
	<ExtendedData><SchemaData schemaUrl="#south0410">
		<SimpleData name="Cluster Na">S1_CL20</SimpleData>
	</SchemaData></ExtendedData>
      <MultiGeometry><Polygon><outerBoundaryIs><LinearRing><coordinates>106.201346422314,10.3377248695067 106.203651196352,10.3663904966056 106.206098126928,10.3779375093812 106.234594411143,10.3861685110758 106.247259426349,10.3873919673834 106.269987817348,10.3907358797311 106.30203860383,10.3840912044848 106.309465005576,10.3736681844906 106.303692794444,10.3593321261139 106.316585124219,10.3475921833573 106.317881559616,10.3405338128656 106.310535092369,10.3354200954686 106.30229917933,10.3365361757612 106.281322851591,10.3340607085126 106.268033501099,10.3285886230156 106.250538760643,10.3224285254707 106.214126841925,10.3164209529035 106.202786906088,10.3217354996173 106.201346422314,10.3377248695067</coordinates></LinearRing></outerBoundaryIs></Polygon></MultiGeometry>
  </Placemark>
  <Placemark>
	<Style><LineStyle><color>ff0000ff</color></LineStyle><PolyStyle><fill>0</fill></PolyStyle></Style>
	<ExtendedData><SchemaData schemaUrl="#south0410">
		<SimpleData name="Cluster Na">S1_CL10</SimpleData>
	</SchemaData></ExtendedData>
      <MultiGeometry><Polygon><outerBoundaryIs><LinearRing><coordinates>106.36217643566,10.4041311714796 106.365273475774,10.4080925018576 106.378958071625,10.4046353408004 106.388897409665,10.4032668812153 106.402771385599,10.3906976578311 106.405751069818,10.3820197455515 106.411008835593,10.3754655443806 106.427358326426,10.3701357544175 106.440682801333,10.3613488033973 106.43866612405,10.3587559326044 106.413457658008,10.355586868302 106.405823094007,10.3570273520758 106.405318924686,10.357675569774 106.404166537667,10.358611884227 106.397108167175,10.3640857225675 106.392714691665,10.3610607066425 106.387168829136,10.3606285615103 106.381012013815,10.3654197493339 106.376567546387,10.3706975544047 106.369437879888,10.3744938703329 106.363419330246,10.3773642555468 106.360734131175,10.3807901991893 106.359067455889,10.3860680042602 106.356990694075,10.3964966074783 106.36217643566,10.4041311714796</coordinates></LinearRing></outerBoundaryIs></Polygon></MultiGeometry>
  </Placemark>
  <Placemark>
	<Style><LineStyle><color>ff0000ff</color></LineStyle><PolyStyle><fill>0</fill></PolyStyle></Style>
	<ExtendedData><SchemaData schemaUrl="#south0410">
		<SimpleData name="Cluster Na">S1_CL11</SimpleData>
	</SchemaData></ExtendedData>
      <MultiGeometry><Polygon><outerBoundaryIs><LinearRing><coordinates>106.375604499402,10.3681657349694 106.37687383242,10.3678985069656 106.377241270925,10.367430857959 106.377441691928,10.3667627879496 106.384924076033,10.3595476318481 106.390481941816,10.3596202228687 106.397684360685,10.3618529727181 106.40344629578,10.3573874730193 106.403950465101,10.3515535137353 106.400421279855,10.3470159898478 106.396667027611,10.3445595993334 106.387729970073,10.3449168986422 106.381450111985,10.3431799166178 106.373433271872,10.3452509336469 106.367504448373,10.34698050054 106.362276502715,10.350662300723 106.359604222677,10.3536018087644 106.360205485686,10.3571425798142 106.361742046707,10.3597480528509 106.365416431759,10.3631552098989 106.369558465817,10.3667627879496 106.372097131853,10.3673640509581 106.373032429866,10.3681657349694 106.374568990888,10.3683661559722 106.375604499402,10.3681657349694</coordinates></LinearRing></outerBoundaryIs></Polygon></MultiGeometry>
  </Placemark>
  <Placemark>
	<Style><LineStyle><color>ff0000ff</color></LineStyle><PolyStyle><fill>0</fill></PolyStyle></Style>
	<ExtendedData><SchemaData schemaUrl="#south0410">
		<SimpleData name="Cluster Na">S1_CL33</SimpleData>
	</SchemaData></ExtendedData>
      <MultiGeometry><Polygon><outerBoundaryIs><LinearRing><coordinates>104.077492493731,10.3682267840348 103.978157985427,10.3062412105156 103.962521733397,10.3103450900559 103.949722298885,10.3244706349836 103.935931208214,10.3480489512927 103.927033730361,10.3631746636419 103.943049190496,10.3989870119981 103.970853808785,10.4244560423508 103.972172459565,10.4367041986535 103.973078425619,10.4398617568138 103.975196787423,10.4413073055919 103.976662320746,10.443951927089 103.978696303359,10.4449911234456 103.981627370006,10.4482774708979 103.983314953833,10.4483662910994 103.98503806574,10.4499650547248 103.987116458453,10.4495742458386 103.989379153084,10.450100505532 103.99507918951,10.4524364768292 103.997437365858,10.4509931485562 103.999777778165,10.4508332721937 104.002708844812,10.4486838233194 104.00700774256,10.4476179809024 104.019535831969,10.426260423304 104.027092210605,10.4167018892948 104.03051622937,10.4138973914351 104.033878073993,10.4125673089189 104.036376142158,10.4129558973001 104.037248060469,10.4151164486995 104.038244327061,10.41577371819 104.039727624425,10.4160964315885 104.04214057323,10.4148529487687 104.043099831405,10.4127893594224 104.050892323743,10.4045231593439 104.054634614896,10.4027467553155 104.05740580518,10.4026993845414 104.057382119793,10.3996913403868 104.059024306628,10.3988584042757 104.061349422123,10.396169125955 104.063179118272,10.3906810243986 104.064947627172,10.3883263021699 104.070973584392,10.383301052552 104.072974012706,10.3798765403418 104.074222429982,10.3794245442057 104.074147426256,10.3781731662569 104.077431799926,10.3741624407173 104.079086816346,10.3704556776449 104.077492493731,10.3682267840348</coordinates></LinearRing></outerBoundaryIs></Polygon></MultiGeometry>
  </Placemark>
  <Placemark>
	<Style><LineStyle><color>ff0000ff</color></LineStyle><PolyStyle><fill>0</fill></PolyStyle></Style>
	<ExtendedData><SchemaData schemaUrl="#south0410">
		<SimpleData name="Cluster Na">S1_CL41</SimpleData>
	</SchemaData></ExtendedData>
      <MultiGeometry><Polygon><outerBoundaryIs><LinearRing><coordinates>103.992789381328,10.1255663248804 103.992054358124,10.1177182221392 103.989340426294,10.1108162132914 103.986230712739,10.1088680038182 103.98334716017,10.1080887276338 103.973113375561,10.1591829736422 103.974018019505,10.1644143862403 103.98334716017,10.1633013269005 103.988831564076,10.1488312028889 103.992789381328,10.1255663248804</coordinates></LinearRing></outerBoundaryIs></Polygon></MultiGeometry>
  </Placemark>
  <Placemark>
	<Style><LineStyle><color>ff0000ff</color></LineStyle><PolyStyle><fill>0</fill></PolyStyle></Style>
	<ExtendedData><SchemaData schemaUrl="#south0410">
		<SimpleData name="Cluster Na">S1_CL38</SimpleData>
	</SchemaData></ExtendedData>
      <MultiGeometry><Polygon><outerBoundaryIs><LinearRing><coordinates>103.97677619248,10.2014908082915 103.966102385001,10.1986668899852 103.964180016621,10.1982217145126 103.963501533664,10.1987225368755 103.961748263977,10.2031150315326 103.96003781227,10.2098878030147 103.961594870895,10.2127238740802 103.965709954401,10.2162272559846 103.970381130274,10.2216769611693 103.97871085996,10.2180314204036 103.994626939338,10.2206466545435 104.011786904138,10.2181427074011 104.023858246756,10.2159726039221 104.025300023041,10.2099351868369 104.003023165937,10.2080988990049 103.993903837346,10.2059395472177 103.97677619248,10.2014908082915</coordinates></LinearRing></outerBoundaryIs></Polygon></MultiGeometry>
  </Placemark>
  <Placemark>
	<Style><LineStyle><color>ff0000ff</color></LineStyle><PolyStyle><fill>0</fill></PolyStyle></Style>
	<ExtendedData><SchemaData schemaUrl="#south0410">
		<SimpleData name="Cluster Na">S1_CL37</SimpleData>
	</SchemaData></ExtendedData>
      <MultiGeometry><Polygon><outerBoundaryIs><LinearRing><coordinates>103.974774259964,10.2202867302548 103.97397561432,10.2241660580047 104.007165525944,10.2502154802473 104.012310494654,10.2573780910523 104.019623109264,10.2531239844541 104.030105450359,10.2439206558005 103.978805929615,10.2189799131952 103.974774259964,10.2202867302548</coordinates></LinearRing></outerBoundaryIs></Polygon></MultiGeometry>
  </Placemark>
  <Placemark>
	<Style><LineStyle><color>ff0000ff</color></LineStyle><PolyStyle><fill>0</fill></PolyStyle></Style>
	<ExtendedData><SchemaData schemaUrl="#south0410">
		<SimpleData name="Cluster Na">S1_CL29</SimpleData>
	</SchemaData></ExtendedData>
      <MultiGeometry></MultiGeometry>
  </Placemark>
  <Placemark>
	<Style><LineStyle><color>ff0000ff</color></LineStyle><PolyStyle><fill>0</fill></PolyStyle></Style>
	<ExtendedData><SchemaData schemaUrl="#south0410">
		<SimpleData name="Cluster Na">S1_CL32</SimpleData>
	</SchemaData></ExtendedData>
      <MultiGeometry><Polygon><outerBoundaryIs><LinearRing><coordinates>103.869713792723,10.3080490980713 103.864766521158,10.3073815651829 103.860299841688,10.3054902143185 103.859423467868,10.3081603534152 103.861600267357,10.3117761306996 103.864596900419,10.315975942966 103.866632349291,10.323151651471 103.866462728552,10.3306887504119 103.865360193746,10.3392824914107 103.88045643955,10.3414517480912 103.891538327855,10.3405617984453 103.911214333622,10.3303828200247 103.927328303862,10.321594147251 103.94232627042,10.312570258356 103.914299215185,10.2892143789932 103.910108788699,10.2910968014643 103.907530782353,10.2924757350913 103.905198211204,10.2926930670216 103.902650181676,10.2909768941924 103.901023939301,10.2910818130553 103.897561616824,10.2898377751092 103.895613123656,10.2904897709003 103.892495534586,10.2900401186306 103.888606042454,10.2917113262329 103.888193861206,10.2938396803093 103.884102025552,10.2998800091318 103.880145085579,10.3035371809251 103.874029814712,10.3068346309027 103.869713792723,10.3080490980713</coordinates></LinearRing></outerBoundaryIs></Polygon></MultiGeometry>
  </Placemark>
  <Placemark>
	<Style><LineStyle><color>ff0000ff</color></LineStyle><PolyStyle><fill>0</fill></PolyStyle></Style>
	<ExtendedData><SchemaData schemaUrl="#south0410">
		<SimpleData name="Cluster Na">S1_CL30</SimpleData>
	</SchemaData></ExtendedData>
      <MultiGeometry><Polygon><outerBoundaryIs><LinearRing><coordinates>103.880655627055,10.3549444966284 103.849292017625,10.3351476084066 103.847494710148,10.3412742476571 103.841649230642,10.3573867873202 103.835346604662,10.361793379563 103.833952682626,10.3613437272933 103.83255876059,10.3626627072843 103.833244480302,10.3641222036096 103.832401382296,10.3653643680046 103.833759706861,10.3654599191119 103.834014509813,10.3679479950041 103.8379939324,10.3712154681637 103.837821565697,10.3737934745098 103.835963002982,10.376266561993 103.836172840708,10.3778103681188 103.837709152629,10.3783087327177 103.843693274918,10.3775630593705 103.844978530989,10.3754197168851 103.847455365574,10.3745354007547 103.849250227551,10.3751499255233 103.851858210715,10.3778216094256 103.856403445741,10.3748501573435 103.858527740456,10.3751510184281 103.859468887637,10.3741655305371 103.86152771215,10.3744819525046 103.863654088589,10.3709381825974 103.880655627055,10.3549444966284</coordinates></LinearRing></outerBoundaryIs></Polygon></MultiGeometry>
  </Placemark>
  <Placemark>
	<Style><LineStyle><color>ff0000ff</color></LineStyle><PolyStyle><fill>0</fill></PolyStyle></Style>
	<ExtendedData><SchemaData schemaUrl="#south0410">
		<SimpleData name="Cluster Na">S1_CL31</SimpleData>
	</SchemaData></ExtendedData>
      <MultiGeometry><Polygon><outerBoundaryIs><LinearRing><coordinates>103.862052589328,10.3336646031869 103.865360193746,10.3285750434771 103.865247113253,10.3228179012159 103.856002782957,10.3140568304045 103.852049058491,10.3224503325601 103.850556879107,10.3260386686974 103.85068799979,10.3329136897243 103.862052589328,10.3336646031869</coordinates></LinearRing></outerBoundaryIs></Polygon></MultiGeometry>
  </Placemark>
  <Placemark>
	<Style><LineStyle><color>ff0000ff</color></LineStyle><PolyStyle><fill>0</fill></PolyStyle></Style>
	<ExtendedData><SchemaData schemaUrl="#south0410">
		<SimpleData name="Cluster Na">S1_CL40</SimpleData>
	</SchemaData></ExtendedData>
      <MultiGeometry><Polygon><outerBoundaryIs><LinearRing><coordinates>104.049735510871,10.2538747091479 104.065456125956,10.3482931517479 104.070544748137,10.3554125028608 104.074050243417,10.3595283039917 104.080156590035,10.3606406733991 104.081739716936,10.3573035533337 104.081287394964,10.3536326802325 104.07529412884,10.3487381159261 104.073032518981,10.3392824914106 104.077401106068,10.3213565177353 104.078402072327,10.3196882406379 104.079890639169,10.308088105991 104.07918303823,10.2971454571803 104.07609209522,10.2891516390529 104.074964078664,10.2833605619161 104.074878866782,10.2719965722762 104.080464547198,10.2551396083001 104.080264701745,10.2483848319824 104.081014122195,10.2450673974596 104.077027205404,10.2345954957127 104.074294318831,10.2224548844317 104.070657131583,10.2151455369815 104.069410595569,10.2135992327874 104.067542040582,10.2129022717695 104.066382936953,10.2107339486024 104.060677349265,10.2082358804376 104.056180826568,10.2011863320766 104.056180826568,10.1995975607238 104.051154713421,10.1873570267163 104.048380192379,10.1742538265025 104.016234218545,10.1717441006861 104.010373397976,10.1751552096 104.016705905579,10.1866191093945 104.028692437828,10.2086553509823 104.044127925111,10.231914172462 104.049735510871,10.2538747091479</coordinates></LinearRing></outerBoundaryIs></Polygon></MultiGeometry>
  </Placemark>
  <Placemark>
	<Style><LineStyle><color>ff0000ff</color></LineStyle><PolyStyle><fill>0</fill></PolyStyle></Style>
	<ExtendedData><SchemaData schemaUrl="#south0410">
		<SimpleData name="Cluster Na">S1_CL35</SimpleData>
	</SchemaData></ExtendedData>
      <MultiGeometry><Polygon><outerBoundaryIs><LinearRing><coordinates>103.94705305553,10.2492313378936 103.970965027258,10.27870423328 103.979028366562,10.2821520059478 103.985338909473,10.2816676176653 103.996378448374,10.2790378886994 104.002988123,10.2689417693069 104.006157187303,10.2548250283235 103.998306550735,10.2443815209633 103.97668954615,10.2441688829281 103.961140978374,10.2418598590411 103.954949821387,10.2354334510463 103.952773021898,10.2345432024437 103.949946009576,10.2384102016715 103.948498915211,10.2425476793643 103.945745488967,10.245656386414 103.94705305553,10.2492313378936</coordinates></LinearRing></outerBoundaryIs></Polygon></MultiGeometry>
  </Placemark>
  <Placemark>
	<Style><LineStyle><color>ff0000ff</color></LineStyle><PolyStyle><fill>0</fill></PolyStyle></Style>
	<ExtendedData><SchemaData schemaUrl="#south0410">
		<SimpleData name="Cluster Na">S1_CL34</SimpleData>
	</SchemaData></ExtendedData>
      <MultiGeometry><Polygon><outerBoundaryIs><LinearRing><coordinates>103.94282675355,10.3096785780539 103.966405069859,10.3045625282887 103.984644899456,10.3032279066109 103.987981453651,10.2923284962416 103.969852842526,10.2800388549578 103.946830618583,10.2507883965178 103.94493990454,10.2502323041521 103.940744911627,10.2528419407087 103.941659759702,10.2533570978769 103.941046900312,10.2544939964551 103.939377080525,10.2561993443223 103.936890114885,10.2571408384574 103.933550475312,10.2611111014607 103.930193071699,10.2632250222545 103.924508578808,10.2760861874198 103.921062354993,10.2817706803106 103.918184580467,10.2848971514005 103.94282675355,10.3096785780539</coordinates></LinearRing></outerBoundaryIs></Polygon></MultiGeometry>
  </Placemark>
  <Placemark>
	<Style><LineStyle><color>ff0000ff</color></LineStyle><PolyStyle><fill>0</fill></PolyStyle></Style>
	<ExtendedData><SchemaData schemaUrl="#south0410">
		<SimpleData name="Cluster Na">S1_CL36</SimpleData>
	</SchemaData></ExtendedData>
      <MultiGeometry><Polygon><outerBoundaryIs><LinearRing><coordinates>103.962300053426,10.2406357913661 103.971289952613,10.2352665296236 103.972731728898,10.2296189697543 103.971020636494,10.2238735260141 103.959453915286,10.2126404602253 103.95786944646,10.2152354674281 103.957007108877,10.2175340730442 103.956874660205,10.2185040508403 103.954045177444,10.2318724416518 103.962300053426,10.2406357913661</coordinates></LinearRing></outerBoundaryIs></Polygon></MultiGeometry>
  </Placemark>
  <Placemark>
	<Style><LineStyle><color>ff0000ff</color></LineStyle><PolyStyle><fill>0</fill></PolyStyle></Style>
	<ExtendedData><SchemaData schemaUrl="#south0410">
		<SimpleData name="Cluster Na">S1_CL39</SimpleData>
	</SchemaData></ExtendedData>
      <MultiGeometry><Polygon><outerBoundaryIs><LinearRing><coordinates>103.964486551197,10.1959854938702 103.988231695215,10.2033259130985 103.99384822811,10.2036039592814 104.003190579855,10.1912587087611 104.003190579855,10.1796919875529 103.988064867506,10.1711281651199 103.971159659586,10.1671243000863 103.969602600962,10.1666516215754 103.962762664863,10.1955684245959 103.964486551197,10.1959854938702</coordinates></LinearRing></outerBoundaryIs></Polygon></MultiGeometry>
  </Placemark>
  <Placemark>
	<Style><LineStyle><color>ff0000ff</color></LineStyle><PolyStyle><fill>0</fill></PolyStyle></Style>
	<ExtendedData><SchemaData schemaUrl="#south0410">
		<SimpleData name="Cluster Na">S1_CL43</SimpleData>
	</SchemaData></ExtendedData>
      <MultiGeometry><Polygon><outerBoundaryIs><LinearRing><coordinates>103.984227830182,10.0992532268429 103.999862385028,10.1032879506743 104.025934757615,10.105036587447 104.022331660102,10.0789480095092 104.017440928783,10.071293611028 104.011518337967,10.0642931566785 104.006627606648,10.0586982124051 104.004026755311,10.050347465281 104.001623794837,10.043443983827 103.996422092163,10.0462833381782 103.991135579119,10.0476751682797 103.990259548631,10.0606019081075 103.988381001371,10.0738672051891 103.984227830182,10.0992532268429</coordinates></LinearRing></outerBoundaryIs></Polygon></MultiGeometry>
  </Placemark>
  <Placemark>
	<Style><LineStyle><color>ff0000ff</color></LineStyle><PolyStyle><fill>0</fill></PolyStyle></Style>
	<ExtendedData><SchemaData schemaUrl="#south0410">
		<SimpleData name="Cluster Na">S1_CL34</SimpleData>
	</SchemaData></ExtendedData>
      <MultiGeometry></MultiGeometry>
  </Placemark>
  <Placemark>
	<Style><LineStyle><color>ff0000ff</color></LineStyle><PolyStyle><fill>0</fill></PolyStyle></Style>
	<ExtendedData><SchemaData schemaUrl="#south0410">
		<SimpleData name="Cluster Na">S1_CL45</SimpleData>
	</SchemaData></ExtendedData>
      <MultiGeometry><Polygon><outerBoundaryIs><LinearRing><coordinates>104.00751811553,10.0305134849299 104.017469198906,10.0308057839893 104.02371689614,10.0357887440612 104.025567706155,10.0363036398358 104.028808794646,10.0359435188924 104.029529036533,10.0356554221376 104.030033205854,10.0355113737603 104.030663858255,10.0352337483305 104.030415161691,10.0313611875487 104.030990272495,10.0297002497822 104.039858969607,10.0192061429849 104.040092122636,10.0161729331065 104.041415543637,10.0153913153341 104.042328171206,10.0132507484799 104.045454642296,10.0118829173781 104.047124462083,10.0140323662524 104.050142128426,10.0119162249537 104.052218300634,10.0083167862913 104.052149464978,10.005165889646 104.045645605729,10.0077327934669 104.044597527352,10.009742350524 104.042505811609,10.0106749626389 104.040769376671,10.0125579509089 104.039907820718,10.0151426187701 104.038326821132,10.0160397028044 104.034560844592,10.0149383323068 104.031096856737,10.0106039064777 104.028556598977,10.0141655965545 104.025585563239,10.0167769104762 104.023933507493,10.0177406096615 104.019285990454,10.0179770934478 104.014755049929,10.0161895868943 104.013333926706,10.0102519564296 104.010846961067,10.0097492896022 104.009283725522,10.0107440758581 104.008377759467,10.0127869404906 104.009293717794,10.0153938134022 104.008181244772,10.0161376825891 104.009170479765,10.0180717424749 104.008566502395,10.0219420827517 104.007069882001,10.0238361735469 104.006576374757,10.0291223633468 104.00751811553,10.0305134849299</coordinates></LinearRing></outerBoundaryIs></Polygon></MultiGeometry>
  </Placemark>
  <Placemark>
	<Style><LineStyle><color>ff0000ff</color></LineStyle><PolyStyle><fill>0</fill></PolyStyle></Style>
	<ExtendedData><SchemaData schemaUrl="#south0410">
		<SimpleData name="Cluster Na">S1_CL46</SimpleData>
	</SchemaData></ExtendedData>
      <MultiGeometry><Polygon><outerBoundaryIs><LinearRing><coordinates>104.007138835652,9.98610928387037 104.026268413035,9.98432978829987 104.038724882028,9.95941685031293 104.02893765639,9.90959097433904 103.998686231692,9.89624475756032 103.971548924242,9.91181534380216 103.977777158739,9.95452323749406 103.992013123303,9.97231819319902 104.007138835652,9.98610928387037</coordinates></LinearRing></outerBoundaryIs></Polygon></MultiGeometry>
  </Placemark>
  <Placemark>
	<Style><LineStyle><color>ff0000ff</color></LineStyle><PolyStyle><fill>0</fill></PolyStyle></Style>
	<ExtendedData><SchemaData schemaUrl="#south0410">
		<SimpleData name="Cluster Na">S1_CL46</SimpleData>
	</SchemaData></ExtendedData>
      <MultiGeometry><Polygon><outerBoundaryIs><LinearRing><coordinates>103.489305624637,9.32769592278686 103.520001923228,9.32191256218275 103.517332679873,9.28454315520234 103.481742768463,9.27030719063837 103.456829830476,9.28142903795397 103.447932352623,9.31612920157864 103.489305624637,9.32769592278686</coordinates></LinearRing></outerBoundaryIs></Polygon></MultiGeometry>
  </Placemark>
  <Placemark>
	<Style><LineStyle><color>ff0000ff</color></LineStyle><PolyStyle><fill>0</fill></PolyStyle></Style>
	<ExtendedData><SchemaData schemaUrl="#south0410">
		<SimpleData name="Cluster Na">S1_CL04</SimpleData>
	</SchemaData></ExtendedData>
      <MultiGeometry><Polygon><outerBoundaryIs><LinearRing><coordinates>106.682873025945,10.4286702468848 106.66043614791,10.4133940746058 106.631232861764,10.3963907350871 106.609170005162,10.3827542173042 106.571334679618,10.3938317124968 106.553904825955,10.401466276498 106.527543972894,10.4088127437445 106.519374822026,10.4131147663303 106.532239461444,10.4290669192084 106.558740618645,10.4198043788276 106.568273651597,10.4362539596354 106.596855278994,10.4305617203014 106.613122326455,10.4419263698971 106.634068935514,10.4535138557594 106.639417005912,10.4673297042874 106.643650894977,10.479808535216 106.653455690706,10.4780258450833 106.656798234705,10.4624273064226 106.657466743505,10.445714586429 106.666825866701,10.4354641181662 106.681087387762,10.4345727730999 106.682873025945,10.4286702468848</coordinates></LinearRing></outerBoundaryIs></Polygon></MultiGeometry>
  </Placemark>
  <Placemark>
	<Style><LineStyle><color>ff0000ff</color></LineStyle><PolyStyle><fill>0</fill></PolyStyle></Style>
	<ExtendedData><SchemaData schemaUrl="#south0410">
		<SimpleData name="Cluster Na">S1_CL04</SimpleData>
	</SchemaData></ExtendedData>
      <MultiGeometry></MultiGeometry>
  </Placemark>
  <Placemark>
	<Style><LineStyle><color>ff0000ff</color></LineStyle><PolyStyle><fill>0</fill></PolyStyle></Style>
	<ExtendedData><SchemaData schemaUrl="#south0410">
		<SimpleData name="Cluster Na">S1_CL12</SimpleData>
	</SchemaData></ExtendedData>
      <MultiGeometry><Polygon><outerBoundaryIs><LinearRing><coordinates>106.359684045863,10.3796684403777 106.368055308296,10.3726418040324 106.37259818436,10.3693014539854 106.367353834786,10.3655602619327 106.364280712743,10.3633556309017 106.360205485686,10.3583451058312 106.357466398647,10.3525328967494 106.354393276604,10.3509295287268 106.349249137532,10.3505286867212 106.345356753951,10.3556280275715 106.345724265553,10.3616626572994 106.342614551998,10.3631712990917 106.340098511031,10.364228037837 106.333115790593,10.3637552867337 106.324363736598,10.3649500128318 106.321626817427,10.3706399237384 106.313344035728,10.3792828263813 106.308014245765,10.3882858499676 106.311543431011,10.3939037366855 106.319610140144,10.3972168493653 106.328541139542,10.3964966074783 106.331645744186,10.394809345653 106.351660991431,10.3923623949658 106.359684045863,10.3796684403777</coordinates></LinearRing></outerBoundaryIs></Polygon></MultiGeometry>
  </Placemark>
  <Placemark>
	<Style><LineStyle><color>ff0000ff</color></LineStyle><PolyStyle><fill>0</fill></PolyStyle></Style>
	<ExtendedData><SchemaData schemaUrl="#south0410">
		<SimpleData name="Cluster Na">S1_CL20</SimpleData>
	</SchemaData></ExtendedData>
      <MultiGeometry></MultiGeometry>
  </Placemark>
</Folder>
</Document></kml>
